start=new Date('2023-03-29T00:00:00.000Z').valueOf();
sats=[{"TIME_SYSTEM":"UTC","OBJECT_TYPE":"PAYLOAD","COUNTRY_CODE":"US","MEAN_MOTION_DOT":"0.00000830","SEMIMAJOR_AXIS":"6737.230","TLE_LINE1":"1 55662U 23021AL  23087.97384564  .00000830  00000-0  86650-5 0  9999","ECCENTRICITY":"0.00032070","OBJECT_NAME":"STARLINK-5479","MEAN_ANOMALY":"102.4096","TLE_LINE2":"2 55662  69.9999  39.7053 0003207 257.6741 102.4096 15.69931555  6690","MEAN_MOTION":"15.69931555","REV_AT_EPOCH":"669","PERIAPSIS":"356.934","OBJECT_ID":"2023-021AL","FILE":"3873869","PERIOD":"91.724","RA_OF_ASC_NODE":"39.7053","ARG_OF_PERICENTER":"257.6741","CLASSIFICATION_TYPE":"U","BSTAR":"0.00000866500000","ELEMENT_SET_NO":"999","SITE":"AFWTR","EPOCH":"2023-03-28T23:22:20.263296","EPHEMERIS_TYPE":"0","NORAD_CAT_ID":"55662","INCLINATION":"69.9999","MEAN_MOTION_DDOT":"0.0000000000000","DECAY_DATE":null,"MEAN_ELEMENT_THEORY":"SGP4","LAUNCH_DATE":"2023-02-17","RCS_SIZE":"LARGE","APOAPSIS":"361.255","GP_ID":"229042719","CENTER_NAME":"EARTH","REF_FRAME":"TEME"},{"ARG_OF_PERICENTER":"257.5649","CLASSIFICATION_TYPE":"U","BSTAR":"0.00004239800000","FILE":"3873921","PERIOD":"91.724","RA_OF_ASC_NODE":"39.8787","EPHEMERIS_TYPE":"0","INCLINATION":"70.0007","NORAD_CAT_ID":"55663","ELEMENT_SET_NO":"999","SITE":"AFWTR","EPOCH":"2023-03-28T21:49:04.232928","LAUNCH_DATE":"2023-02-17","RCS_SIZE":"LARGE","APOAPSIS":"361.065","GP_ID":"229070244","MEAN_MOTION_DDOT":"0.0000000000000","DECAY_DATE":null,"MEAN_ELEMENT_THEORY":"SGP4","REF_FRAME":"TEME","CENTER_NAME":"EARTH","TLE_LINE1":"1 55663U 23021AM  23087.90907677  .00004890  00000-0  42398-4 0  9999","TIME_SYSTEM":"UTC","MEAN_MOTION_DOT":"0.00004890","COUNTRY_CODE":"US","OBJECT_TYPE":"PAYLOAD","SEMIMAJOR_AXIS":"6737.229","OBJECT_NAME":"STARLINK-5473","MEAN_ANOMALY":"102.5219","ECCENTRICITY":"0.00029260","TLE_LINE2":"2 55663  70.0007  39.8787 0002926 257.5649 102.5219 15.69931907  6994","OBJECT_ID":"2023-021AM","MEAN_MOTION":"15.69931907","REV_AT_EPOCH":"699","PERIAPSIS":"357.122"},{"ARG_OF_PERICENTER":"263.8797","BSTAR":"0.00010444000000","CLASSIFICATION_TYPE":"U","PERIOD":"91.723","FILE":"3873921","RA_OF_ASC_NODE":"39.8842","EPHEMERIS_TYPE":"0","NORAD_CAT_ID":"55664","INCLINATION":"70.0018","SITE":"AFWTR","ELEMENT_SET_NO":"999","EPOCH":"2023-03-28T21:49:58.791936","LAUNCH_DATE":"2023-02-17","GP_ID":"229069972","APOAPSIS":"361.105","RCS_SIZE":"LARGE","MEAN_MOTION_DDOT":"0.0000000000000","MEAN_ELEMENT_THEORY":"SGP4","DECAY_DATE":null,"REF_FRAME":"TEME","CENTER_NAME":"EARTH","TLE_LINE1":"1 55664U 23021AN  23087.90970824  .00012369  00000-0  10444-3 0  9990","COUNTRY_CODE":"US","OBJECT_TYPE":"PAYLOAD","MEAN_MOTION_DOT":"0.00012369","TIME_SYSTEM":"UTC","SEMIMAJOR_AXIS":"6737.217","OBJECT_NAME":"STARLINK-5480","MEAN_ANOMALY":"96.2057","ECCENTRICITY":"0.00030030","TLE_LINE2":"2 55664  70.0018  39.8842 0003003 263.8797  96.2057 15.69935998  6993","OBJECT_ID":"2023-021AN","REV_AT_EPOCH":"699","MEAN_MOTION":"15.69935998","PERIAPSIS":"357.059"},{"EPHEMERIS_TYPE":"0","NORAD_CAT_ID":"55665","INCLINATION":"70.0015","ELEMENT_SET_NO":"999","SITE":"AFWTR","EPOCH":"2023-03-28T23:21:16.510464","ARG_OF_PERICENTER":"267.5119","BSTAR":"0.00000659340000","CLASSIFICATION_TYPE":"U","FILE":"3873870","PERIOD":"91.724","RA_OF_ASC_NODE":"39.7025","REF_FRAME":"TEME","CENTER_NAME":"EARTH","LAUNCH_DATE":"2023-02-17","RCS_SIZE":"LARGE","APOAPSIS":"361.212","GP_ID":"229042731","MEAN_MOTION_DDOT":"0.0000000000000","DECAY_DATE":null,"MEAN_ELEMENT_THEORY":"SGP4","OBJECT_NAME":"STARLINK-5474","MEAN_ANOMALY":"92.5719","ECCENTRICITY":"0.00031250","TLE_LINE1":"1 55665U 23021AP  23087.97310776  .00000580  00000-0  65934-5 0  9990","TIME_SYSTEM":"UTC","COUNTRY_CODE":"US","OBJECT_TYPE":"PAYLOAD","MEAN_MOTION_DOT":"0.00000580","SEMIMAJOR_AXIS":"6737.242","OBJECT_ID":"2023-021AP","MEAN_MOTION":"15.69927423","REV_AT_EPOCH":"669","PERIAPSIS":"357.001","TLE_LINE2":"2 55665  70.0015  39.7025 0003125 267.5119  92.5719 15.69927423  6692"},{"TLE_LINE2":"2 55666  69.9918  37.7354 0004964 206.9718  96.8635 15.93954187  6743","OBJECT_ID":"2023-021AQ","PERIAPSIS":"287.921","MEAN_MOTION":"15.93954187","REV_AT_EPOCH":"674","TLE_LINE1":"1 55666U 23021AQ  23088.00001157  .00246733  27098-4  67273-3 0  9994","SEMIMAJOR_AXIS":"6669.367","COUNTRY_CODE":"US","OBJECT_TYPE":"PAYLOAD","MEAN_MOTION_DOT":"0.00246733","TIME_SYSTEM":"UTC","MEAN_ANOMALY":"96.8635","OBJECT_NAME":"STARLINK-5457","ECCENTRICITY":"0.00049640","GP_ID":"229040317","APOAPSIS":"294.543","RCS_SIZE":"LARGE","LAUNCH_DATE":"2023-02-17","MEAN_ELEMENT_THEORY":"SGP4","DECAY_DATE":null,"MEAN_MOTION_DDOT":"0.0000270980000","CENTER_NAME":"EARTH","REF_FRAME":"TEME","BSTAR":"0.00067273000000","CLASSIFICATION_TYPE":"U","ARG_OF_PERICENTER":"206.9718","RA_OF_ASC_NODE":"37.7354","PERIOD":"90.341","FILE":"3873769","NORAD_CAT_ID":"55666","INCLINATION":"69.9918","EPHEMERIS_TYPE":"0","EPOCH":"2023-03-29T00:00:00.999648","SITE":"AFWTR","ELEMENT_SET_NO":"999"},{"OBJECT_NAME":"STARLINK-5456","MEAN_ANOMALY":"95.2816","ECCENTRICITY":"0.00032230","TLE_LINE1":"1 55667U 23021AR  23087.90897227  .00005391  00000-0  46560-4 0  9994","TIME_SYSTEM":"UTC","COUNTRY_CODE":"US","OBJECT_TYPE":"PAYLOAD","MEAN_MOTION_DOT":"0.00005391","SEMIMAJOR_AXIS":"6737.231","OBJECT_ID":"2023-021AR","REV_AT_EPOCH":"699","MEAN_MOTION":"15.69931237","PERIAPSIS":"356.924","TLE_LINE2":"2 55667  70.0020  39.8817 0003223 264.8012  95.2816 15.69931237  6990","EPHEMERIS_TYPE":"0","NORAD_CAT_ID":"55667","INCLINATION":"70.0020","SITE":"AFWTR","ELEMENT_SET_NO":"999","EPOCH":"2023-03-28T21:48:55.204128","ARG_OF_PERICENTER":"264.8012","BSTAR":"0.00004656000000","CLASSIFICATION_TYPE":"U","FILE":"3873921","PERIOD":"91.724","RA_OF_ASC_NODE":"39.8817","REF_FRAME":"TEME","CENTER_NAME":"EARTH","LAUNCH_DATE":"2023-02-17","RCS_SIZE":"LARGE","APOAPSIS":"361.267","GP_ID":"229069744","MEAN_MOTION_DDOT":"0.0000000000000","DECAY_DATE":null,"MEAN_ELEMENT_THEORY":"SGP4"},{"BSTAR":"0.00001089700000","CLASSIFICATION_TYPE":"U","ARG_OF_PERICENTER":"264.4892","RA_OF_ASC_NODE":"39.7054","FILE":"3873870","PERIOD":"91.724","INCLINATION":"70.0026","NORAD_CAT_ID":"55668","EPHEMERIS_TYPE":"0","EPOCH":"2023-03-28T23:21:25.883136","SITE":"AFWTR","ELEMENT_SET_NO":"999","RCS_SIZE":"LARGE","GP_ID":"229042735","APOAPSIS":"361.031","LAUNCH_DATE":"2023-02-17","DECAY_DATE":null,"MEAN_ELEMENT_THEORY":"SGP4","MEAN_MOTION_DDOT":"0.0000000000000","REF_FRAME":"TEME","CENTER_NAME":"EARTH","TLE_LINE1":"1 55668U 23021AS  23087.97321624  .00001098  00000-0  10897-4 0  9999","SEMIMAJOR_AXIS":"6737.240","TIME_SYSTEM":"UTC","MEAN_MOTION_DOT":"0.00001098","COUNTRY_CODE":"US","OBJECT_TYPE":"PAYLOAD","MEAN_ANOMALY":"95.5977","OBJECT_NAME":"STARLINK-5455","ECCENTRICITY":"0.00028590","TLE_LINE2":"2 55668  70.0026  39.7054 0002859 264.4892  95.5977 15.69928062  6695","OBJECT_ID":"2023-021AS","PERIAPSIS":"357.179","MEAN_MOTION":"15.69928062","REV_AT_EPOCH":"669"},{"TLE_LINE2":"2 55669  70.0029  39.7043 0002939 264.3742  95.7119 15.69927025  6697","OBJECT_ID":"2023-021AT","MEAN_MOTION":"15.69927025","REV_AT_EPOCH":"669","PERIAPSIS":"357.128","TLE_LINE1":"1 55669U 23021AT  23087.97289861  .00000170  00000-0  31785-5 0  9996","MEAN_MOTION_DOT":"0.00000170","COUNTRY_CODE":"US","OBJECT_TYPE":"PAYLOAD","TIME_SYSTEM":"UTC","SEMIMAJOR_AXIS":"6737.243","OBJECT_NAME":"STARLINK-5459","MEAN_ANOMALY":"95.7119","ECCENTRICITY":"0.00029390","LAUNCH_DATE":"2023-02-17","APOAPSIS":"361.088","GP_ID":"229042919","RCS_SIZE":"LARGE","MEAN_MOTION_DDOT":"0.0000000000000","MEAN_ELEMENT_THEORY":"SGP4","DECAY_DATE":null,"REF_FRAME":"TEME","CENTER_NAME":"EARTH","ARG_OF_PERICENTER":"264.3742","CLASSIFICATION_TYPE":"U","BSTAR":"0.00000317850000","PERIOD":"91.724","FILE":"3873870","RA_OF_ASC_NODE":"39.7043","EPHEMERIS_TYPE":"0","NORAD_CAT_ID":"55669","INCLINATION":"70.0029","ELEMENT_SET_NO":"999","SITE":"AFWTR","EPOCH":"2023-03-28T23:20:58.439904"},{"COUNTRY_CODE":"US","MEAN_MOTION_DOT":"0.00001400","OBJECT_TYPE":"PAYLOAD","TIME_SYSTEM":"UTC","SEMIMAJOR_AXIS":"6737.243","TLE_LINE1":"1 55670U 23021AU  23087.97258361  .00001400  00000-0  13410-4 0  9990","ECCENTRICITY":"0.00033260","OBJECT_NAME":"STARLINK-5423","MEAN_ANOMALY":"102.1263","TLE_LINE2":"2 55670  70.0011  39.7018 0003326 257.9560 102.1263 15.69926903  6696","REV_AT_EPOCH":"669","MEAN_MOTION":"15.69926903","PERIAPSIS":"356.867","OBJECT_ID":"2023-021AU","PERIOD":"91.724","FILE":"3873870","RA_OF_ASC_NODE":"39.7018","ARG_OF_PERICENTER":"257.9560","CLASSIFICATION_TYPE":"U","BSTAR":"0.00001341000000","SITE":"AFWTR","ELEMENT_SET_NO":"999","EPOCH":"2023-03-28T23:20:31.223904","EPHEMERIS_TYPE":"0","INCLINATION":"70.0011","NORAD_CAT_ID":"55670","MEAN_MOTION_DDOT":"0.0000000000000","MEAN_ELEMENT_THEORY":"SGP4","DECAY_DATE":null,"LAUNCH_DATE":"2023-02-17","GP_ID":"229042733","APOAPSIS":"361.349","RCS_SIZE":"LARGE","REF_FRAME":"TEME","CENTER_NAME":"EARTH"},{"REF_FRAME":"TEME","CENTER_NAME":"EARTH","APOAPSIS":"361.378","GP_ID":"229042916","RCS_SIZE":"LARGE","LAUNCH_DATE":"2023-02-17","MEAN_ELEMENT_THEORY":"SGP4","DECAY_DATE":null,"MEAN_MOTION_DDOT":"0.0000000000000","NORAD_CAT_ID":"55671","INCLINATION":"70.0010","EPHEMERIS_TYPE":"0","EPOCH":"2023-03-28T23:19:36.447168","SITE":"AFWTR","ELEMENT_SET_NO":"999","BSTAR":"0.00000872960000","CLASSIFICATION_TYPE":"U","ARG_OF_PERICENTER":"263.0230","RA_OF_ASC_NODE":"39.6983","PERIOD":"91.724","FILE":"3873870","OBJECT_ID":"2023-021AV","PERIAPSIS":"356.848","REV_AT_EPOCH":"669","MEAN_MOTION":"15.69925145","TLE_LINE2":"2 55671  70.0010  39.6983 0003362 263.0230  97.0584 15.69925145  6693","MEAN_ANOMALY":"97.0584","OBJECT_NAME":"STARLINK-5460","ECCENTRICITY":"0.00033620","TLE_LINE1":"1 55671U 23021AV  23087.97194962  .00000837  00000-0  87296-5 0  9994","SEMIMAJOR_AXIS":"6737.248","COUNTRY_CODE":"US","MEAN_MOTION_DOT":"0.00000837","OBJECT_TYPE":"PAYLOAD","TIME_SYSTEM":"UTC"}];
